[{"OBJECT_NAME":"STARLINK-36048","OBJECT_ID":"2025-270R","EPOCH":"2026-03-09T00:03:38.372544","MEAN_MOTION":15.27580914,"ECCENTRICITY":6.277e-5,"INCLINATION":42.9969,"RA_OF_ASC_NODE":59.8093,"ARG_OF_PERICENTER":273.9101,"MEAN_ANOMALY":86.1679,"EPHEMERIS_TYPE":0,"CLASSIFICATION_TYPE":"U","NORAD_CAT_ID":66603,"ELEMENT_SET_NO":999,"REV_AT_EPOCH":1750,"BSTAR":0.00094906375,"MEAN_MOTION_DOT":0.00025947,"MEAN_MOTION_DDOT":0},{"OBJECT_NAME":"PUCP-SAT 1","OBJECT_ID":"2013-066AC","EPOCH":"2026-03-09T22:02:13.763904","MEAN_MOTION":15.29426022,"ECCENTRICITY":0.00136836,"INCLINATION":97.5787,"RA_OF_ASC_NODE":61.0032,"ARG_OF_PERICENTER":300.1183,"MEAN_ANOMALY":59.87,"EPHEMERIS_TYPE":0,"CLASSIFICATION_TYPE":"U","NORAD_CAT_ID":39442,"ELEMENT_SET_NO":999,"REV_AT_EPOCH":66907,"BSTAR":0.00088755185,"MEAN_MOTION_DOT":0.00025373,"MEAN_MOTION_DDOT":0}]
